start=new Date('2022-11-09T00:00:00.000Z').valueOf();
sats=[{"RA_OF_ASC_NODE":"247.0395","LAUNCH_DATE":"2022-07-24","PERIAPSIS":"538.425","NORAD_CAT_ID":"53281","MEAN_MOTION":"15.08860169","MEAN_MOTION_DOT":"0.00002344","SEMIMAJOR_AXIS":"6917.819","TIME_SYSTEM":"UTC","MEAN_MOTION_DDOT":"0.0000000000000","EPHEMERIS_TYPE":"0","BSTAR":"0.00016525000000","PERIOD":"95.436","MEAN_ELEMENT_THEORY":"SGP4","DECAY_DATE":null,"ECCENTRICITY":"0.00018190","COUNTRY_CODE":"US","MEAN_ANOMALY":"311.6427","REF_FRAME":"TEME","CENTER_NAME":"EARTH","OBJECT_NAME":"STARLINK-4182","EPOCH":"2022-11-08T18:39:23.889312","CLASSIFICATION_TYPE":"U","SITE":"AFETR","RCS_SIZE":"LARGE","ELEMENT_SET_NO":"999","OBJECT_TYPE":"PAYLOAD","ARG_OF_PERICENTER":"48.4721","OBJECT_ID":"2022-086AR","APOAPSIS":"540.942","TLE_LINE2":"2 53281  53.2188 247.0395 0001819  48.4721 311.6427 15.08860169 17481","FILE":"3649076","REV_AT_EPOCH":"1748","TLE_LINE1":"1 53281U 22086AR  22312.77735983  .00002344  00000-0  16525-3 0  9991","INCLINATION":"53.2188","GP_ID":"217204342"},{"SEMIMAJOR_AXIS":"6917.879","TIME_SYSTEM":"UTC","MEAN_MOTION_DDOT":"0.0000000000000","PERIOD":"95.438","EPHEMERIS_TYPE":"0","BSTAR":"0.00005574700000","MEAN_ELEMENT_THEORY":"SGP4","LAUNCH_DATE":"2022-07-24","RA_OF_ASC_NODE":"249.3976","NORAD_CAT_ID":"53282","PERIAPSIS":"538.368","MEAN_MOTION_DOT":"0.00000599","MEAN_MOTION":"15.08840535","REF_FRAME":"TEME","CENTER_NAME":"EARTH","MEAN_ANOMALY":"309.0989","DECAY_DATE":null,"ECCENTRICITY":"0.00019880","COUNTRY_CODE":"US","ELEMENT_SET_NO":"999","OBJECT_TYPE":"PAYLOAD","ARG_OF_PERICENTER":"51.0180","APOAPSIS":"541.119","OBJECT_ID":"2022-086AS","SITE":"AFETR","EPOCH":"2022-11-08T06:06:56.138688","OBJECT_NAME":"STARLINK-4164","CLASSIFICATION_TYPE":"U","RCS_SIZE":"LARGE","TLE_LINE1":"1 53282U 22086AS  22312.25481642  .00000599  00000-0  55747-4 0  9995","INCLINATION":"53.2174","REV_AT_EPOCH":"1740","FILE":"3648805","GP_ID":"217174171","TLE_LINE2":"2 53282  53.2174 249.3976 0001988  51.0180 309.0989 15.08840535 17404"},{"RCS_SIZE":"LARGE","OBJECT_NAME":"STARLINK-4175","EPOCH":"2022-11-08T20:09:28.269792","CLASSIFICATION_TYPE":"U","SITE":"AFETR","OBJECT_ID":"2022-086AT","APOAPSIS":"540.830","ARG_OF_PERICENTER":"55.0230","ELEMENT_SET_NO":"999","OBJECT_TYPE":"PAYLOAD","TLE_LINE2":"2 53283  53.2186 246.7521 0001628  55.0230 305.0915 15.08853669 17492","GP_ID":"217204514","FILE":"3649076","REV_AT_EPOCH":"1749","TLE_LINE1":"1 53283U 22086AT  22312.83991053  .00003724  00000-0  25188-3 0  9990","INCLINATION":"53.2186","MEAN_MOTION":"15.08853669","MEAN_MOTION_DOT":"0.00003724","PERIAPSIS":"538.577","NORAD_CAT_ID":"53283","RA_OF_ASC_NODE":"246.7521","LAUNCH_DATE":"2022-07-24","MEAN_ELEMENT_THEORY":"SGP4","EPHEMERIS_TYPE":"0","BSTAR":"0.00025188000000","PERIOD":"95.437","MEAN_MOTION_DDOT":"0.0000000000000","TIME_SYSTEM":"UTC","SEMIMAJOR_AXIS":"6917.839","COUNTRY_CODE":"US","DECAY_DATE":null,"ECCENTRICITY":"0.00016280","MEAN_ANOMALY":"305.0915","CENTER_NAME":"EARTH","REF_FRAME":"TEME"},{"REF_FRAME":"TEME","CENTER_NAME":"EARTH","DECAY_DATE":null,"ECCENTRICITY":"0.00016540","COUNTRY_CODE":"US","MEAN_ANOMALY":"311.7292","SEMIMAJOR_AXIS":"6917.908","TIME_SYSTEM":"UTC","MEAN_MOTION_DDOT":"0.0000000000000","BSTAR":"0.00017027000000","EPHEMERIS_TYPE":"0","PERIOD":"95.438","MEAN_ELEMENT_THEORY":"SGP4","RA_OF_ASC_NODE":"249.9986","LAUNCH_DATE":"2022-07-24","PERIAPSIS":"538.629","NORAD_CAT_ID":"53284","MEAN_MOTION":"15.08831009","MEAN_MOTION_DOT":"0.00002422","FILE":"3648805","REV_AT_EPOCH":"1738","TLE_LINE1":"1 53284U 22086AU  22312.11865923  .00002422  00000-0  17027-3 0  9995","INCLINATION":"53.2190","GP_ID":"217174336","TLE_LINE2":"2 53284  53.2190 249.9986 0001654  48.3842 311.7292 15.08831009 17385","ELEMENT_SET_NO":"999","OBJECT_TYPE":"PAYLOAD","ARG_OF_PERICENTER":"48.3842","OBJECT_ID":"2022-086AU","APOAPSIS":"540.917","CLASSIFICATION_TYPE":"U","OBJECT_NAME":"STARLINK-4172","EPOCH":"2022-11-08T02:50:52.157472","SITE":"AFETR","RCS_SIZE":"LARGE"},{"RA_OF_ASC_NODE":"250.0730","LAUNCH_DATE":"2022-07-24","PERIAPSIS":"538.735","NORAD_CAT_ID":"53285","MEAN_MOTION":"15.08838468","MEAN_MOTION_DOT":"0.00001382","SEMIMAJOR_AXIS":"6917.885","TIME_SYSTEM":"UTC","MEAN_MOTION_DDOT":"0.0000000000000","EPHEMERIS_TYPE":"0","BSTAR":"0.00010493000000","PERIOD":"95.438","MEAN_ELEMENT_THEORY":"SGP4","DECAY_DATE":null,"COUNTRY_CODE":"US","ECCENTRICITY":"0.00014670","MEAN_ANOMALY":"298.4849","REF_FRAME":"TEME","CENTER_NAME":"EARTH","EPOCH":"2022-11-08T02:24:22.424256","CLASSIFICATION_TYPE":"U","OBJECT_NAME":"STARLINK-4173","SITE":"AFETR","RCS_SIZE":"LARGE","ELEMENT_SET_NO":"999","OBJECT_TYPE":"PAYLOAD","ARG_OF_PERICENTER":"61.6291","OBJECT_ID":"2022-086AV","APOAPSIS":"540.765","TLE_LINE2":"2 53285  53.2194 250.0730 0001467  61.6291 298.4849 15.08838468 17372","FILE":"3648805","TLE_LINE1":"1 53285U 22086AV  22312.10025954  .00001382  00000-0  10493-3 0  9991","INCLINATION":"53.2194","REV_AT_EPOCH":"1737","GP_ID":"217173559"},{"GP_ID":"217204957","FILE":"3649076","TLE_LINE1":"1 53286U 22086AW  22312.83624239  .00005313  00000-0  35135-3 0  9991","REV_AT_EPOCH":"1748","INCLINATION":"53.2171","TLE_LINE2":"2 53286  53.2171 246.7687 0001715  57.9873 302.1285 15.08869744 17481","OBJECT_ID":"2022-086AW","APOAPSIS":"540.841","ARG_OF_PERICENTER":"57.9873","ELEMENT_SET_NO":"999","OBJECT_TYPE":"PAYLOAD","RCS_SIZE":"LARGE","EPOCH":"2022-11-08T20:04:11.342496","OBJECT_NAME":"STARLINK-4165","CLASSIFICATION_TYPE":"U","SITE":"AFETR","CENTER_NAME":"EARTH","REF_FRAME":"TEME","DECAY_DATE":null,"COUNTRY_CODE":"US","ECCENTRICITY":"0.00017150","MEAN_ANOMALY":"302.1285","MEAN_ELEMENT_THEORY":"SGP4","EPHEMERIS_TYPE":"0","BSTAR":"0.00035135000000","PERIOD":"95.436","MEAN_MOTION_DDOT":"0.0000000000000","TIME_SYSTEM":"UTC","SEMIMAJOR_AXIS":"6917.789","MEAN_MOTION":"15.08869744","MEAN_MOTION_DOT":"0.00005313","PERIAPSIS":"538.468","NORAD_CAT_ID":"53286","RA_OF_ASC_NODE":"246.7687","LAUNCH_DATE":"2022-07-24"},{"OBJECT_TYPE":"PAYLOAD","ELEMENT_SET_NO":"999","OBJECT_ID":"2022-086AX","APOAPSIS":"540.972","ARG_OF_PERICENTER":"54.3837","EPOCH":"2022-11-08T05:24:32.154624","OBJECT_NAME":"STARLINK-4107","CLASSIFICATION_TYPE":"U","SITE":"AFETR","RCS_SIZE":"LARGE","GP_ID":"217173311","FILE":"3648805","TLE_LINE1":"1 53287U 22086AX  22312.22537216  .00004013  00000-0  27003-3 0  9994","INCLINATION":"53.2189","REV_AT_EPOCH":"1739","TLE_LINE2":"2 53287  53.2189 249.5110 0001807  54.3837 305.7323 15.08847818 17396","MEAN_MOTION_DDOT":"0.0000000000000","SEMIMAJOR_AXIS":"6917.856","TIME_SYSTEM":"UTC","MEAN_ELEMENT_THEORY":"SGP4","EPHEMERIS_TYPE":"0","BSTAR":"0.00027003000000","PERIOD":"95.437","PERIAPSIS":"538.471","NORAD_CAT_ID":"53287","RA_OF_ASC_NODE":"249.5110","LAUNCH_DATE":"2022-07-24","MEAN_MOTION":"15.08847818","MEAN_MOTION_DOT":"0.00004013","CENTER_NAME":"EARTH","REF_FRAME":"TEME","DECAY_DATE":null,"ECCENTRICITY":"0.00018070","COUNTRY_CODE":"US","MEAN_ANOMALY":"305.7323"},{"LAUNCH_DATE":"2022-07-24","RA_OF_ASC_NODE":"247.6782","NORAD_CAT_ID":"53288","PERIAPSIS":"538.622","MEAN_MOTION_DOT":"0.00002968","MEAN_MOTION":"15.08857421","SEMIMAJOR_AXIS":"6917.827","TIME_SYSTEM":"UTC","MEAN_MOTION_DDOT":"0.0000000000000","PERIOD":"95.436","EPHEMERIS_TYPE":"0","BSTAR":"0.00020441000000","MEAN_ELEMENT_THEORY":"SGP4","MEAN_ANOMALY":"302.7139","DECAY_DATE":null,"COUNTRY_CODE":"US","ECCENTRICITY":"0.00015470","REF_FRAME":"TEME","CENTER_NAME":"EARTH","SITE":"AFETR","OBJECT_NAME":"STARLINK-4162","EPOCH":"2022-11-08T15:12:43.588512","CLASSIFICATION_TYPE":"U","RCS_SIZE":"LARGE","ELEMENT_SET_NO":"999","OBJECT_TYPE":"PAYLOAD","ARG_OF_PERICENTER":"57.4003","APOAPSIS":"540.762","OBJECT_ID":"2022-086AY","TLE_LINE2":"2 53288  53.2176 247.6782 0001547  57.4003 302.7139 15.08857421 17457","TLE_LINE1":"1 53288U 22086AY  22312.63383783  .00002968  00000-0  20441-3 0  9994","REV_AT_EPOCH":"1745","INCLINATION":"53.2176","FILE":"3649076","GP_ID":"217204848"},{"OBJECT_TYPE":"PAYLOAD","ELEMENT_SET_NO":"999","ARG_OF_PERICENTER":"59.5925","OBJECT_ID":"2022-086AZ","APOAPSIS":"540.650","EPOCH":"2022-11-08T14:19:09.224256","OBJECT_NAME":"STARLINK-4176","CLASSIFICATION_TYPE":"U","SITE":"AFETR","RCS_SIZE":"LARGE","FILE":"3649076","REV_AT_EPOCH":"1751","TLE_LINE1":"1 53289U 22086AZ  22312.59663454  .00002508  00000-0  17557-3 0  9990","INCLINATION":"53.2165","GP_ID":"217204343","TLE_LINE2":"2 53289  53.2165 242.9662 0001375  59.5925 300.5203 15.08855150 17518","SEMIMAJOR_AXIS":"6917.834","TIME_SYSTEM":"UTC","MEAN_MOTION_DDOT":"0.0000000000000","EPHEMERIS_TYPE":"0","BSTAR":"0.00017557000000","PERIOD":"95.437","MEAN_ELEMENT_THEORY":"SGP4","RA_OF_ASC_NODE":"242.9662","LAUNCH_DATE":"2022-07-24","PERIAPSIS":"538.748","NORAD_CAT_ID":"53289","MEAN_MOTION":"15.08855150","MEAN_MOTION_DOT":"0.00002508","REF_FRAME":"TEME","CENTER_NAME":"EARTH","ECCENTRICITY":"0.00013750","DECAY_DATE":null,"COUNTRY_CODE":"US","MEAN_ANOMALY":"300.5203"},{"RA_OF_ASC_NODE":"249.4937","LAUNCH_DATE":"2022-07-24","PERIAPSIS":"538.257","NORAD_CAT_ID":"53290","MEAN_MOTION":"15.08841402","MEAN_MOTION_DOT":"0.00003910","SEMIMAJOR_AXIS":"6917.876","TIME_SYSTEM":"UTC","MEAN_MOTION_DDOT":"0.0000000000000","BSTAR":"0.00026363000000","EPHEMERIS_TYPE":"0","PERIOD":"95.437","MEAN_ELEMENT_THEORY":"SGP4","COUNTRY_CODE":"US","DECAY_DATE":null,"ECCENTRICITY":"0.00021450","MEAN_ANOMALY":"310.6968","REF_FRAME":"TEME","CENTER_NAME":"EARTH","OBJECT_NAME":"STARLINK-4149","EPOCH":"2022-11-08T05:29:50.316576","CLASSIFICATION_TYPE":"U","SITE":"AFETR","RCS_SIZE":"LARGE","OBJECT_TYPE":"PAYLOAD","ELEMENT_SET_NO":"999","ARG_OF_PERICENTER":"49.4211","OBJECT_ID":"2022-086BA","APOAPSIS":"541.225","TLE_LINE2":"2 53290  53.2184 249.4937 0002145  49.4211 310.6968 15.08841402 17391","FILE":"3648805","TLE_LINE1":"1 53290U 22086BA  22312.22905459  .00003910  00000-0  26363-3 0  9999","REV_AT_EPOCH":"1739","INCLINATION":"53.2184","GP_ID":"217174172"}];
